{"type": "FeatureCollection", "features": [ {"type": "Feature", "properties": {"norad_id": 34031, "name": "COSMOS 2251 DEB", "group": "cosmos-2251-debris", "lat": 72.14645410174565, "lon": -171.42444191148124, "alt_km": 702.2869880370772, "timestamp": "2025-12-17T23:38:07.246989+00:00", "meta": {"OBJECT_NAME": "COSMOS 2251 DEB", "OBJECT_ID": "1993-036HS", "EPOCH": "2025-12-17T10:21:37.336032", "MEAN_MOTION": 14.5974125, "ECCENTRICITY": 0.00229776, "INCLINATION": 74.0126, "RA_OF_ASC_NODE": 126.7462, "ARG_OF_PERICENTER": 246.8476, "MEAN_ANOMALY": 169.6919, "EPHEMERIS_TYPE": 0, "CLASSIFICATION_TYPE": "U", "NORAD_CAT_ID": 34031, "ELEMENT_SET_NO": 999, "REV_AT_EPOCH": 88634, "BSTAR": 0.0010075382, "MEAN_MOTION_DOT": 4.799e-05, "MEAN_MOTION_DDOT": 0}, "tle": {"line1": "1 34031U 93036HS  25351.43168213  .00004799  00000+0  10075-2 0  9999", "line2": "2 34031  74.0126 126.7462 0022977 246.8476 169.6919 14.59741250886343"}}, "geometry": {"type": "Point", "coordinates": [-171.42444191148124, 72.14645410174565]}}, {"type": "Feature", "properties": {"norad_id": 34035, "name": "COSMOS 2251 DEB", "group": "cosmos-2251-debris", "lat": 71.5125877489055, "lon": 100.57229404789719, "alt_km": 727.6257514872495, "timestamp": "2025-12-17T23:38:07.246999+00:00", "meta": {"OBJECT_NAME": "COSMOS 2251 DEB", "OBJECT_ID": "1993-036HW", "EPOCH": "2025-12-17T08:36:46.255680", "MEAN_MOTION": 14.52000179, "ECCENTRICITY": 0.00450107, "INCLINATION": 74.0653, "RA_OF_ASC_NODE": 340.4524, "ARG_OF_PERICENTER": 340.9921, "MEAN_ANOMALY": 87.4537, "EPHEMERIS_TYPE": 0, "CLASSIFICATION_TYPE": "U", "NORAD_CAT_ID": 34035, "ELEMENT_SET_NO": 999, "REV_AT_EPOCH": 88033, "BSTAR": 0.0013308527, "MEAN_MOTION_DOT": 5.423e-05, "MEAN_MOTION_DDOT": 0}, "tle": {"line1": "1 34035U 93036HW  25351.35886870  .00005423  00000+0  13309-2 0  9998", "line2": "2 34035  74.0653 340.4524 0045010 340.9921  87.4537 14.52000179880337"}}, "geometry": {"type": "Point", "coordinates": [100.57229404789719, 71.5125877489055]}}, {"type": "Feature", "properties": {"norad_id": 34036, "name": "COSMOS 2251 DEB", "group": "cosmos-2251-debris", "lat": 73.52331378906634, "lon": -117.01418431096258, "alt_km": 572.0028071029001, "timestamp": "2025-12-17T23:38:07.247009+00:00", "meta": {"OBJECT_NAME": "COSMOS 2251 DEB", "OBJECT_ID": "1993-036HX", "EPOCH": "2025-12-17T05:33:14.117760", "MEAN_MOTION": 14.95328706, "ECCENTRICITY": 0.00112982, "INCLINATION": 74.0183, "RA_OF_ASC_NODE": 140.1979, "ARG_OF_PERICENTER": 172.5933, "MEAN_ANOMALY": 187.542, "EPHEMERIS_TYPE": 0, "CLASSIFICATION_TYPE": "U", "NORAD_CAT_ID": 34036, "ELEMENT_SET_NO": 999, "REV_AT_EPOCH": 88637, "BSTAR": 0.0031535473, "MEAN_MOTION_DOT": 0.00034962, "MEAN_MOTION_DDOT": 0}, "tle": {"line1": "1 34036U 93036HX  25351.23141340  .00034962  00000+0  31535-2 0  9993", "line2": "2 34036  74.0183 140.1979 0011298 172.5933 187.5420 14.95328706886377"}}, "geometry": {"type": "Point", "coordinates": [-117.01418431096258, 73.52331378906634]}}, {"type": "Feature", "properties": {"norad_id": 34037, "name": "COSMOS 2251 DEB", "group": "cosmos-2251-debris", "lat": 73.91008783331722, "lon": 138.36967719506174, "alt_km": 731.6517798766408, "timestamp": "2025-12-17T23:38:07.247019+00:00", "meta": {"OBJECT_NAME": "COSMOS 2251 DEB", "OBJECT_ID": "1993-036HY", "EPOCH": "2025-12-17T13:10:10.602912", "MEAN_MOTION": 14.34677462, "ECCENTRICITY": 0.00518676, "INCLINATION": 74.0514, "RA_OF_ASC_NODE": 41.641, "ARG_OF_PERICENTER": 90.1729, "MEAN_ANOMALY": 270.5367, "EPHEMERIS_TYPE": 0, "CLASSIFICATION_TYPE": "U", "NORAD_CAT_ID": 34037, "ELEMENT_SET_NO": 999, "REV_AT_EPOCH": 87786, "BSTAR": 0.00035847437, "MEAN_MOTION_DOT": 1.004e-05, "MEAN_MOTION_DDOT": 0}, "tle": {"line1": "1 34037U 93036HY  25351.54873383  .00001004  00000+0  35847-3 0  9999", "line2": "2 34037  74.0514  41.6410 0051867  90.1729 270.5367 14.34677462877861"}}, "geometry": {"type": "Point", "coordinates": [138.36967719506174, 73.91008783331722]}}, {"type": "Feature", "properties": {"norad_id": 34040, "name": "COSMOS 2251 DEB", "group": "cosmos-2251-debris", "lat": 7.073909576151193, "lon": -124.84962981391534, "alt_km": 1248.5776099747864, "timestamp": "2025-12-17T23:38:07.247029+00:00", "meta": {"OBJECT_NAME": "COSMOS 2251 DEB", "OBJECT_ID": "1993-036JB", "EPOCH": "2025-12-17T12:16:36.325920", "MEAN_MOTION": 13.68381263, "ECCENTRICITY": 0.03431815, "INCLINATION": 73.9558, "RA_OF_ASC_NODE": 57.9785, "ARG_OF_PERICENTER": 10.3737, "MEAN_ANOMALY": 350.4226, "EPHEMERIS_TYPE": 0, "CLASSIFICATION_TYPE": "U", "NORAD_CAT_ID": 34040, "ELEMENT_SET_NO": 999, "REV_AT_EPOCH": 83665, "BSTAR": 0.00047524743, "MEAN_MOTION_DOT": 5.9e-06, "MEAN_MOTION_DDOT": 0}, "tle": {"line1": "1 34040U 93036JB  25351.51153155  .00000590  00000+0  47525-3 0  9993", "line2": "2 34040  73.9558  57.9785 0343181  10.3737 350.4226 13.68381263836653"}}, "geometry": {"type": "Point", "coordinates": [-124.84962981391534, 7.073909576151193]}}, {"type": "Feature", "properties": {"norad_id": 34045, "name": "COSMOS 2251 DEB", "group": "cosmos-2251-debris", "lat": 51.36708623710633, "lon": 100.25237314215457, "alt_km": 776.9556540547073, "timestamp": "2025-12-17T23:38:07.247039+00:00", "meta": {"OBJECT_NAME": "COSMOS 2251 DEB", "OBJECT_ID": "1993-036JG", "EPOCH": "2025-12-17T08:33:30.857760", "MEAN_MOTION": 14.34071502, "ECCENTRICITY": 0.00258538, "INCLINATION": 74.0393, "RA_OF_ASC_NODE": 302.3836, "ARG_OF_PERICENTER": 24.546, "MEAN_ANOMALY": 98.8856, "EPHEMERIS_TYPE": 0, "CLASSIFICATION_TYPE": "U", "NORAD_CAT_ID": 34045, "ELEMENT_SET_NO": 999, "REV_AT_EPOCH": 88099, "BSTAR": 8.5788113e-05, "MEAN_MOTION_DOT": 2.15e-06, "MEAN_MOTION_DDOT": 0}, "tle": {"line1": "1 34045U 93036JG  25351.35660715  .00000215  00000+0  85788-4 0  9993", "line2": "2 34045  74.0393 302.3836 0025853  24.5460  98.8856 14.34071502880998"}}, "geometry": {"type": "Point", "coordinates": [100.25237314215457, 51.36708623710633]}}, {"type": "Feature", "properties": {"norad_id": 34046, "name": "COSMOS 2251 DEB", "group": "cosmos-2251-debris", "lat": -11.928561166776806, "lon": -2.7862677598261816, "alt_km": 745.1740994853835, "timestamp": "2025-12-17T23:38:07.247049+00:00", "meta": {"OBJECT_NAME": "COSMOS 2251 DEB", "OBJECT_ID": "1993-036JH", "EPOCH": "2025-12-17T10:59:08.282400", "MEAN_MOTION": 14.46510711, "ECCENTRICITY": 0.00744297, "INCLINATION": 74.0392, "RA_OF_ASC_NODE": 1.6636, "ARG_OF_PERICENTER": 83.6571, "MEAN_ANOMALY": 41.3137, "EPHEMERIS_TYPE": 0, "CLASSIFICATION_TYPE": "U", "NORAD_CAT_ID": 34046, "ELEMENT_SET_NO": 999, "REV_AT_EPOCH": 87894, "BSTAR": 0.00088941695, "MEAN_MOTION_DOT": 3.288e-05, "MEAN_MOTION_DDOT": 0}, "tle": {"line1": "1 34046U 93036JH  25351.45773475  .00003288  00000+0  88942-3 0  9990", "line2": "2 34046  74.0392   1.6636 0074429  83.6571  41.3137 14.46510711878947"}}, "geometry": {"type": "Point", "coordinates": [-2.7862677598261816, -11.928561166776806]}}, {"type": "Feature", "properties": {"norad_id": 34050, "name": "COSMOS 2251 DEB", "group": "cosmos-2251-debris", "lat": -6.641259034336974, "lon": -0.8480731068480252, "alt_km": 856.0662049210687, "timestamp": "2025-12-17T23:38:07.247059+00:00", "meta": {"OBJECT_NAME": "COSMOS 2251 DEB", "OBJECT_ID": "1993-036JM", "EPOCH": "2025-12-17T12:11:28.402368", "MEAN_MOTION": 13.96191332, "ECCENTRICITY": 0.02146072, "INCLINATION": 74.0883, "RA_OF_ASC_NODE": 1.8729, "ARG_OF_PERICENTER": 64.9629, "MEAN_ANOMALY": 54.7582, "EPHEMERIS_TYPE": 0, "CLASSIFICATION_TYPE": "U", "NORAD_CAT_ID": 34050, "ELEMENT_SET_NO": 999, "REV_AT_EPOCH": 85498, "BSTAR": 0.00055776112, "MEAN_MOTION_DOT": 9.09e-06, "MEAN_MOTION_DDOT": 0}, "tle": {"line1": "1 34050U 93036JM  25351.50796762  .00000909  00000+0  55776-3 0  9991", "line2": "2 34050  74.0883   1.8729 0214607  64.9629  54.7582 13.96191332854980"}}, "geometry": {"type": "Point", "coordinates": [-0.8480731068480252, -6.641259034336974]}}, {"type": "Feature", "properties": {"norad_id": 34053, "name": "COSMOS 2251 DEB", "group": "cosmos-2251-debris", "lat": 14.952886278610237, "lon": 49.27951041259115, "alt_km": 1321.9260165847645, "timestamp": "2025-12-17T23:38:07.247069+00:00", "meta": {"OBJECT_NAME": "COSMOS 2251 DEB", "OBJECT_ID": "1993-036JQ", "EPOCH": "2025-12-17T15:43:44.577984", "MEAN_MOTION": 13.49168929, "ECCENTRICITY": 0.04225072, "INCLINATION": 73.8436, "RA_OF_ASC_NODE": 234.2503, "ARG_OF_PERICENTER": 21.9894, "MEAN_ANOMALY": 339.8752, "EPHEMERIS_TYPE": 0, "CLASSIFICATION_TYPE": "U", "NORAD_CAT_ID": 34053, "ELEMENT_SET_NO": 999, "REV_AT_EPOCH": 82750, "BSTAR": 0.00059687813, "MEAN_MOTION_DOT": 6.3e-06, "MEAN_MOTION_DDOT": 0}, "tle": {"line1": "1 34053U 93036JQ  25351.65537706  .00000630  00000+0  59688-3 0  9998", "line2": "2 34053  73.8436 234.2503 0422507  21.9894 339.8752 13.49168929827501"}}, "geometry": {"type": "Point", "coordinates": [49.27951041259115, 14.952886278610237]}}, {"type": "Feature", "properties": {"norad_id": 34056, "name": "COSMOS 2251 DEB", "group": "cosmos-2251-debris", "lat": -58.37054853683482, "lon": -85.35377814530051, "alt_km": 885.3753986053662, "timestamp": "2025-12-17T23:38:07.247079+00:00", "meta": {"OBJECT_NAME": "COSMOS 2251 DEB", "OBJECT_ID": "1993-036JT", "EPOCH": "2025-12-17T14:35:52.552896", "MEAN_MOTION": 14.20574848, "ECCENTRICITY": 0.01238254, "INCLINATION": 74.0598, "RA_OF_ASC_NODE": 67.6722, "ARG_OF_PERICENTER": 114.2207, "MEAN_ANOMALY": 1.9443, "EPHEMERIS_TYPE": 0, "CLASSIFICATION_TYPE": "U", "NORAD_CAT_ID": 34056, "ELEMENT_SET_NO": 999, "REV_AT_EPOCH": 86480, "BSTAR": 0.00051374605, "MEAN_MOTION_DOT": 1.169e-05, "MEAN_MOTION_DDOT": 0}, "tle": {"line1": "1 34056U 93036JT  25351.60824714  .00001169  00000+0  51375-3 0  9997", "line2": "2 34056  74.0598  67.6722 0123825 114.2207   1.9443 14.20574848864801"}}, "geometry": {"type": "Point", "coordinates": [-85.35377814530051, -58.37054853683482]}}]}